[{"OBJECT_NAME":"IRIDIUM 133","OBJECT_ID":"2017-061A","EPOCH":"2026-03-09T23:02:46.694688","MEAN_MOTION":14.34217647,"ECCENTRICITY":0.0002155,"INCLINATION":86.3917,"RA_OF_ASC_NODE":66.7467,"ARG_OF_PERICENTER":89.8241,"MEAN_ANOMALY":270.3201,"EPHEMERIS_TYPE":0,"CLASSIFICATION_TYPE":"U","NORAD_CAT_ID":42955,"ELEMENT_SET_NO":999,"REV_AT_EPOCH":44055,"BSTAR":5.149012e-6,"MEAN_MOTION_DOT":3.4e-7,"MEAN_MOTION_DDOT":0},{"OBJECT_NAME":"COSMOS 1937","OBJECT_ID":"1988-029A","EPOCH":"2026-03-09T21:48:41.896800","MEAN_MOTION":14.36122746,"ECCENTRICITY":0.00231923,"INCLINATION":74.0444,"RA_OF_ASC_NODE":286.8147,"ARG_OF_PERICENTER":35.2091,"MEAN_ANOMALY":70.0638,"EPHEMERIS_TYPE":0,"CLASSIFICATION_TYPE":"U","NORAD_CAT_ID":19038,"ELEMENT_SET_NO":999,"REV_AT_EPOCH":98549,"BSTAR":5.5374425e-5,"MEAN_MOTION_DOT":1.36e-6,"MEAN_MOTION_DDOT":0}]
